[
    {
        "Altitude(m)": 604983.0530809604,
        "Argument of Periapsis(deg)": 0.0,
        "Eccentricity": 0.0,
        "Inclination(deg)": 60.0,
        "Latitude(deg)": -0.09274119744311761,
        "Longitude(deg)": -99.91608366653573,
        "Mean Anomaly(deg)": -180.0,
        "RAAN(deg)": 180.0,
        "Satellite Name": "Test1 803",
        "Satellite Number": 803,
        "Semi-Major Axis(m)": 6980739.136638005,
        "Time(s)": 0
    },
    {
        "Altitude(m)": 605055.3331942623,
        "Argument of Periapsis(deg)": 0.00010418945913296404,
        "Eccentricity": 0.0,
        "Inclination(deg)": 60.0,
        "Latitude(deg)": -0.6331512681122099,
        "Longitude(deg)": -99.647959144011,
        "Mean Anomaly(deg)": -179.37989385453815,
        "RAAN(deg)": 179.99957995086024,
        "Satellite Name": "Test1 803",
        "Satellite Number": 803,
        "Semi-Major Axis(m)": 6980739.136638005,
        "Time(s)": 10
    }
]